$$SOE
2460147.500000000, A.D. 2023-Jul-22 00:00:00.0000, 4.773713698841537E+08, 2.483668175921723E+07, -1.236611622103362E+08,
2460154.500000000, A.D. 2023-Jul-29 00:00:00.0000, 4.719571745938523E+08, 3.072983442681353E+07, -1.211721300636134E+08,
2460161.500000000, A.D. 2023-Aug-05 00:00:00.0000, 4.663461380180373E+08, 3.661036899196422E+07, -1.186324756375783E+08,
2460168.500000000, A.D. 2023-Aug-12 00:00:00.0000, 4.605336938738206E+08, 4.247528621701878E+07, -1.160415042512743E+08,
2460175.500000000, A.D. 2023-Aug-19 00:00:00.0000, 4.545150461143051E+08, 4.832137416431560E+07, -1.133984969026275E+08,
2460182.500000000, A.D. 2023-Aug-26 00:00:00.0000, 4.482851534456098E+08, 5.414518706334922E+07, -1.107027098475005E+08,
2460189.500000000, A.D. 2023-Sep-02 00:00:00.0000, 4.418387125235400E+08, 5.994302153450534E+07, -1.079533742889430E+08,
2460196.500000000, A.D. 2023-Sep-09 00:00:00.0000, 4.351701397465325E+08, 6.571088975111778E+07, -1.051496962174963E+08,
2460203.500000000, A.D. 2023-Sep-16 00:00:00.0000, 4.282735516823840E+08, 7.144448903951940E+07, -1.022908564650913E+08,
2460210.500000000, A.D. 2023-Sep-23 00:00:00.0000, 4.211427444018336E+08, 7.713916768383756E+07, -9.937601103952934E+07,
2460217.500000000, A.D. 2023-Sep-30 00:00:00.0000, 4.137711712234069E+08, 8.278988751545253E+07, -9.640429167583731E+07,
2460224.500000000, A.D. 2023-Oct-07 00:00:00.0000, 4.061519163529577E+08, 8.839118202563974E+07, -9.337480651575564E+07,
2460231.500000000, A.D. 2023-Oct-14 00:00:00.0000, 3.982776652923894E+08, 9.393710583373570E+07, -9.028664138789731E+07,
2460238.500000000, A.D. 2023-Oct-21 00:00:00.0000, 3.901406750751469E+08, 9.942117609302901E+07, -8.713886198727217E+07,
2460245.500000000, A.D. 2023-Oct-28 00:00:00.0000, 3.817327427334101E+08, 1.048363068756987E+08, -8.393051680729702E+07,
2460252.500000000, A.D. 2023-Nov-04 00:00:00.0000, 3.730451705876171E+08, 1.101747343043751E+08, -8.066064098713009E+07,
2460259.500000000, A.D. 2023-Nov-11 00:00:00.0000, 3.640687283999804E+08, 1.154279300689538E+08, -7.732826141331175E+07,
2460266.500000000, A.D. 2023-Nov-18 00:00:00.0000, 3.547936125179284E+08, 1.205865011338563E+08, -7.393240345124868E+07,
2460273.500000000, A.D. 2023-Nov-25 00:00:00.0000, 3.452094020576422E+08, 1.256400730709526E+08, -7.047209976104227E+07,
2460280.500000000, A.D. 2023-Dec-02 00:00:00.0000, 3.353050122457923E+08, 1.305771538518842E+08, -6.694640178092463E+07,
2460287.500000000, A.D. 2023-Dec-09 00:00:00.0000, 3.250686452610263E+08, 1.353849741778834E+08, -6.335439464121833E+07,
2460294.500000000, A.D. 2023-Dec-16 00:00:00.0000, 3.144877393900141E+08, 1.400492996097740E+08, -5.969521651182530E+07,
2460301.500000000, A.D. 2023-Dec-23 00:00:00.0000, 3.035489177650740E+08, 1.445542093192363E+08, -5.596808363753676E+07,
2460308.500000000, A.D. 2023-Dec-30 00:00:00.0000, 2.922379368385075E+08, 1.488818352421912E+08, -5.217232253255599E+07,
2460315.500000000, A.D. 2024-Jan-06 00:00:00.0000, 2.805396351859971E+08, 1.530120502431629E+08, -4.830741159020332E+07,
2460322.500000000, A.D. 2024-Jan-13 00:00:00.0000, 2.684378894647564E+08, 1.569220922099288E+08, -4.437303551198751E+07,
2460329.500000000, A.D. 2024-Jan-20 00:00:00.0000, 2.559155842839675E+08, 1.605861130518219E+08, -4.036915638422163E+07,
2460336.500000000, A.D. 2024-Jan-27 00:00:00.0000, 2.429546022892947E+08, 1.639746355774222E+08, -3.629610650952598E+07,
2460343.500000000, A.D. 2024-Feb-03 00:00:00.0000, 2.295358465289028E+08, 1.670538951533993E+08, -3.215471028347965E+07,
2460350.500000000, A.D. 2024-Feb-10 00:00:00.0000, 2.156393140832326E+08, 1.697850381535273E+08, -2.794644506023143E+07,
2460357.500000000, A.D. 2024-Feb-17 00:00:00.0000, 2.012442490989375E+08, 1.721231427580807E+08, -2.367365459532569E+07,
2460364.500000000, A.D. 2024-Feb-24 00:00:00.0000, 1.863294172430441E+08, 1.740160197536530E+08, -1.933983378727729E+07,
2460371.500000000, A.D. 2024-Mar-02 00:00:00.0000, 1.708735646759526E+08, 1.754027422550591E+08, -1.495001062786847E+07,
2460378.500000000, A.D. 2024-Mar-09 00:00:00.0000, 1.548561566325678E+08, 1.762118450420862E+08, -1.051126127904773E+07,
2460385.500000000, A.D. 2024-Mar-16 00:00:00.0000, 1.382585391302902E+08, 1.763591297648807E+08, -6.033407946083590E+06,
2460392.500000000, A.D. 2024-Mar-23 00:00:00.0000, 1.210657392437231E+08, 1.757450185660946E+08, -1.529967569858335E+06,
2460399.500000000, A.D. 2024-Mar-30 00:00:00.0000, 1.032692246328058E+08, 1.742514266346052E+08, 2.980557067594260E+06,
2460406.500000000, A.D. 2024-Apr-06 00:00:00.0000, 8.487110051998390E+07, 1.717382010250149E+08, 7.472924246758170E+06,
2460413.500000000, A.D. 2024-Apr-13 00:00:00.0000, 6.589043753475314E+07, 1.680393603168613E+08, 1.191279407380665E+07,
2460420.500000000, A.D. 2024-Apr-20 00:00:00.0000, 4.637267635276102E+07, 1.629597509626128E+08, 1.625361739772110E+07,
2460427.500000000, A.D. 2024-Apr-27 00:00:00.0000, 2.640327862255835E+07, 1.562734626026536E+08, 2.043269530752036E+07,
2460434.500000000, A.D. 2024-May-04 00:00:00.0000, 6.126738498806506E+06, 1.477266297031235E+08, 2.436657298946726E+07,
2460441.500000000, A.D. 2024-May-11 00:00:00.0000, -1.422887624832890E+07, 1.370492178492035E+08, 2.794653229001831E+07,
2460448.500000000, A.D. 2024-May-18 00:00:00.0000, -3.432468800904186E+07, 1.239826352395041E+08, 3.103614768182228E+07,
2460455.500000000, A.D. 2024-May-25 00:00:00.0000, -5.369042174819055E+07, 1.083304850098875E+08, 3.347469994936667E+07,
2460462.500000000, A.D. 2024-Jun-01 00:00:00.0000, -7.172943274839318E+07, 9.003361294793034E+07, 3.509173828550160E+07,
2460469.500000000, A.D. 2024-Jun-08 00:00:00.0000, -8.777381996630856E+07, 6.925221337383820E+07, 3.573631949112904E+07,
2460476.500000000, A.D. 2024-Jun-15 00:00:00.0000, -1.011992725962913E+08, 4.641204955249379E+07, 3.531595097899760E+07,
2460483.500000000, A.D. 2024-Jun-22 00:00:00.0000, -1.115664308594317E+08, 2.216684613602513E+07, 3.382788588737453E+07,
2460490.500000000, A.D. 2024-Jun-29 00:00:00.0000, -1.187172624780886E+08, -2.727066868066140E+06, 3.136290205270016E+07,
2460497.500000000, A.D. 2024-Jul-06 00:00:00.0000, -1.227742100424837E+08, -2.756343707484815E+07, 2.807819052811676E+07,
2460504.500000000, A.D. 2024-Jul-13 00:00:00.0000, -1.240571927537677E+08, -5.179155181921412E+07, 2.415652506122645E+07,
2460511.500000000, A.D. 2024-Jul-20 00:00:00.0000, -1.229769991197431E+08, -7.504678466797447E+07, 1.977228908725349E+07,
2460518.500000000, A.D. 2024-Jul-27 00:00:00.0000, -1.199518176648839E+08, -9.712717321463478E+07, 1.507321088825067E+07,
2460525.500000000, A.D. 2024-Aug-03 00:00:00.0000, -1.153603743870834E+08, -1.179496434310560E+08, 1.017550128135025E+07,
2460532.500000000, A.D. 2024-Aug-10 00:00:00.0000, -1.095241043195031E+08, -1.375080387387292E+08, 5.166461334573813E+06,
2460539.500000000, A.D. 2024-Aug-17 00:00:00.0000, -1.027061234642399E+08, -1.558412236508144E+08, 1.098225862666219E+05,
2460546.500000000, A.D. 2024-Aug-24 00:00:00.0000, -9.511771558697663E+07, -1.730116414202349E+08, -4.948737663325481E+06,
2460553.500000000, A.D. 2024-Aug-31 00:00:00.0000, -8.692703891325371E+07, -1.890919683975572E+08, -9.976911164725170E+06,
2460560.500000000, A.D. 2024-Sep-07 00:00:00.0000, -7.826757301238316E+07, -2.041572796135643E+08, -1.495211349267921E+07,
2460567.500000000, A.D. 2024-Sep-14 00:00:00.0000, -6.924538525393176E+07, -2.182807096357087E+08, -1.985877086119688E+07,
2460574.500000000, A.D. 2024-Sep-21 00:00:00.0000, -5.994503756513796E+07, -2.315312340464519E+08, -2.468634543855967E+07,
2460581.500000000, A.D. 2024-Sep-28 00:00:00.0000, -5.043425237898077E+07, -2.439726983011621E+08, -2.942791328711921E+07,
2460588.500000000, A.D. 2024-Oct-05 00:00:00.0000, -4.076754357068701E+07, -2.556635558218822E+08, -3.407914428952727E+07,
2460595.500000000, A.D. 2024-Oct-12 00:00:00.0000, -3.098902494514404E+07, -2.666569898865927E+08, -3.863757006606521E+07,
2460602.500000000, A.D. 2024-Oct-19 00:00:00.0000, -2.113458154116154E+07, -2.770012299392222E+08, -4.310205714390936E+07,
2460609.500000000, A.D. 2024-Oct-26 00:00:00.0000, -1.123355183663853E+07, -2.867399536276035E+08, -4.747242648177330E+07,
2460616.500000000, A.D. 2024-Nov-02 00:00:00.0000, -1.310035919796351E+06, -2.959127130061132E+08, -5.174917760596243E+07,
2460623.500000000, A.D. 2024-Nov-09 00:00:00.0000, 8.616082254145216E+06, -3.045553514108441E+08, -5.593328781082672E+07,
2460630.500000000, A.D. 2024-Nov-16 00:00:00.0000, 1.852833163901954E+07, -3.127003940660702E+08, -6.002606549046049E+07,
2460637.500000000, A.D. 2024-Nov-23 00:00:00.0000, 2.841301934926996E+07, -3.203774050642734E+08, -6.402904272736096E+07,
2460644.500000000, A.D. 2024-Nov-30 00:00:00.0000, 3.825872630095499E+07, -3.276133087198497E+08, -6.794389652728975E+07,
2460651.500000000, A.D. 2024-Dec-07 00:00:00.0000, 4.805590461053427E+07, -3.344326757364169E+08, -7.177239106278107E+07,
2460658.500000000, A.D. 2024-Dec-14 00:00:00.0000, 5.779655394019377E+07, -3.408579752895302E+08, -7.551633523718467E+07,
2460665.500000000, A.D. 2024-Dec-21 00:00:00.0000, 6.747395754594637E+07, -3.469097972260635E+08, -7.917755143888350E+07,
2460672.500000000, A.D. 2024-Dec-28 00:00:00.0000, 7.708246698624016E+07, -3.526070504761517E+08, -8.275785296834649E+07,
2460679.500000000, A.D. 2025-Jan-04 00:00:00.0000, 8.661732802534869E+07, -3.579671383476324E+08, -8.625902801890014E+07,
2460686.500000000, A.D. 2025-Jan-11 00:00:00.0000, 9.607453808426335E+07, -3.630061118762064E+08, -8.968282830827758E+07,
2460693.500000000, A.D. 2025-Jan-18 00:00:00.0000, 1.054507282018956E+08, -3.677388047126920E+08, -9.303096116150296E+07,
2460700.500000000, A.D. 2025-Jan-25 00:00:00.0000, 1.147430649376930E+08, -3.721789523015901E+08, -9.630508421665092E+07,
2460707.500000000, A.D. 2025-Feb-01 00:00:00.0000, 1.239491686003256E+08, -3.763392973874602E+08, -9.950680210580169E+07,
2460714.500000000, A.D. 2025-Feb-08 00:00:00.0000, 1.330670448365799E+08, -3.802316835825241E+08, -1.026376646120798E+08,
$$EOE